CCSDS_OMM_VERS = 2.0
CREATION_DATE  = 
ORIGINATOR     = 

OBJECT_NAME    = SL-16 R/B
OBJECT_ID      = 1998-045B
CENTER_NAME    = EARTH
REF_FRAME      = TEME
TIME_SYSTEM    = UTC
MEAN_ELEMENT_THEORY = SGP/SGP4

EPOCH          = 2026-04-01T19:28:25.134528
MEAN_MOTION    = 14.16193190
ECCENTRICITY   = .00081422
INCLINATION    = 71.0092
RA_OF_ASC_NODE = 132.9521
ARG_OF_PERICENTER = 333.6041
MEAN_ANOMALY   = 26.4666

EPHEMERIS_TYPE = 0
CLASSIFICATION_TYPE = U
NORAD_CAT_ID   = 25407
ELEMENT_SET_NO = 999
REV_AT_EPOCH   = 43037
BSTAR          = -.14681683E-4
MEAN_MOTION_DOT = -.77E-6
MEAN_MOTION_DDOT = 0

CCSDS_OMM_VERS = 2.0
CREATION_DATE  = 
ORIGINATOR     = 

OBJECT_NAME    = ISS (ZARYA)
OBJECT_ID      = 1998-067A
CENTER_NAME    = EARTH
REF_FRAME      = TEME
TIME_SYSTEM    = UTC
MEAN_ELEMENT_THEORY = SGP/SGP4

EPOCH          = 2026-04-01T21:00:31.002048
MEAN_MOTION    = 15.48704825
ECCENTRICITY   = .00062363
INCLINATION    = 51.6331
RA_OF_ASC_NODE = 317.7347
ARG_OF_PERICENTER = 261.1612
MEAN_ANOMALY   = 98.8670

EPHEMERIS_TYPE = 0
CLASSIFICATION_TYPE = U
NORAD_CAT_ID   = 25544
ELEMENT_SET_NO = 999
REV_AT_EPOCH   = 55992
BSTAR          = .16572922E-3
MEAN_MOTION_DOT = .8601E-4
MEAN_MOTION_DDOT = 0

CCSDS_OMM_VERS = 2.0
CREATION_DATE  = 
ORIGINATOR     = 

OBJECT_NAME    = CZ-4B R/B
OBJECT_ID      = 1999-025C
CENTER_NAME    = EARTH
REF_FRAME      = TEME
TIME_SYSTEM    = UTC
MEAN_ELEMENT_THEORY = SGP/SGP4

EPOCH          = 2026-04-01T02:21:41.734080
MEAN_MOTION    = 14.18269842
ECCENTRICITY   = .0035972
INCLINATION    = 98.6580
RA_OF_ASC_NODE = 134.8445
ARG_OF_PERICENTER = 280.7063
MEAN_ANOMALY   = 133.2500

EPHEMERIS_TYPE = 0
CLASSIFICATION_TYPE = U
NORAD_CAT_ID   = 25732
ELEMENT_SET_NO = 999
REV_AT_EPOCH   = 39134
BSTAR          = .63783336E-4
MEAN_MOTION_DOT = .89E-6
MEAN_MOTION_DDOT = 0

CCSDS_OMM_VERS = 2.0
CREATION_DATE  = 
ORIGINATOR     = 

OBJECT_NAME    = OKEAN-O
OBJECT_ID      = 1999-039A
CENTER_NAME    = EARTH
REF_FRAME      = TEME
TIME_SYSTEM    = UTC
MEAN_ELEMENT_THEORY = SGP/SGP4

EPOCH          = 2026-04-01T21:41:28.930848
MEAN_MOTION    = 14.80372798
ECCENTRICITY   = .00008948
INCLINATION    = 97.9395
RA_OF_ASC_NODE = 151.5538
ARG_OF_PERICENTER = 100.3387
MEAN_ANOMALY   = 259.7926

EPHEMERIS_TYPE = 0
CLASSIFICATION_TYPE = U
NORAD_CAT_ID   = 25860
ELEMENT_SET_NO = 999
REV_AT_EPOCH   = 43782
BSTAR          = .11064589E-3
MEAN_MOTION_DOT = .792E-5
MEAN_MOTION_DDOT = 0

CCSDS_OMM_VERS = 2.0
CREATION_DATE  = 
ORIGINATOR     = 

OBJECT_NAME    = SL-16 R/B
OBJECT_ID      = 1999-039B
CENTER_NAME    = EARTH
REF_FRAME      = TEME
TIME_SYSTEM    = UTC
MEAN_ELEMENT_THEORY = SGP/SGP4

EPOCH          = 2026-04-01T02:51:26.612928
MEAN_MOTION    = 14.81762859
ECCENTRICITY   = .00148095
INCLINATION    = 97.9918
RA_OF_ASC_NODE = 150.1769
ARG_OF_PERICENTER = 179.4348
MEAN_ANOMALY   = 180.6884

EPHEMERIS_TYPE = 0
CLASSIFICATION_TYPE = U
NORAD_CAT_ID   = 25861
ELEMENT_SET_NO = 999
REV_AT_EPOCH   = 44018
BSTAR          = .10478609E-3
MEAN_MOTION_DOT = .774E-5
MEAN_MOTION_DDOT = 0

CCSDS_OMM_VERS = 2.0
CREATION_DATE  = 
ORIGINATOR     = 

OBJECT_NAME    = DELTA 2 R/B
OBJECT_ID      = 1999-041E
CENTER_NAME    = EARTH
REF_FRAME      = TEME
TIME_SYSTEM    = UTC
MEAN_ELEMENT_THEORY = SGP/SGP4

EPOCH          = 2026-04-01T14:10:05.637792
MEAN_MOTION    = 14.11890378
ECCENTRICITY   = .0502636
INCLINATION    = 51.7608
RA_OF_ASC_NODE = 209.7977
ARG_OF_PERICENTER = 55.9621
MEAN_ANOMALY   = 308.7995

EPHEMERIS_TYPE = 0
CLASSIFICATION_TYPE = U
NORAD_CAT_ID   = 25876
ELEMENT_SET_NO = 999
REV_AT_EPOCH   = 36626
BSTAR          = .1855668E-3
MEAN_MOTION_DOT = .908E-5
MEAN_MOTION_DDOT = 0

CCSDS_OMM_VERS = 2.0
CREATION_DATE  = 
ORIGINATOR     = 

OBJECT_NAME    = HELIOS 1B
OBJECT_ID      = 1999-064A
CENTER_NAME    = EARTH
REF_FRAME      = TEME
TIME_SYSTEM    = UTC
MEAN_ELEMENT_THEORY = SGP/SGP4

EPOCH          = 2026-04-01T23:37:59.076192
MEAN_MOTION    = 14.87788987
ECCENTRICITY   = .00016426
INCLINATION    = 98.1675
RA_OF_ASC_NODE = 354.9105
ARG_OF_PERICENTER = 46.5228
MEAN_ANOMALY   = 313.6124

EPHEMERIS_TYPE = 0
CLASSIFICATION_TYPE = U
NORAD_CAT_ID   = 25977
ELEMENT_SET_NO = 999
REV_AT_EPOCH   = 68872
BSTAR          = .20785701E-3
MEAN_MOTION_DOT = .1839E-4
MEAN_MOTION_DDOT = 0

CCSDS_OMM_VERS = 2.0
CREATION_DATE  = 
ORIGINATOR     = 

OBJECT_NAME    = TERRA
OBJECT_ID      = 1999-068A
CENTER_NAME    = EARTH
REF_FRAME      = TEME
TIME_SYSTEM    = UTC
MEAN_ELEMENT_THEORY = SGP/SGP4

EPOCH          = 2026-04-01T22:33:14.685984
MEAN_MOTION    = 14.61039424
ECCENTRICITY   = .00036499
INCLINATION    = 97.9544
RA_OF_ASC_NODE = 144.4807
ARG_OF_PERICENTER = 103.5988
MEAN_ANOMALY   = 358.4263

EPHEMERIS_TYPE = 0
CLASSIFICATION_TYPE = U
NORAD_CAT_ID   = 25994
ELEMENT_SET_NO = 999
REV_AT_EPOCH   = 39847
BSTAR          = .11002025E-3
MEAN_MOTION_DOT = .496E-5
MEAN_MOTION_DDOT = 0

CCSDS_OMM_VERS = 2.0
CREATION_DATE  = 
ORIGINATOR     = 

OBJECT_NAME    = SL-16 R/B
OBJECT_ID      = 2000-006B
CENTER_NAME    = EARTH
REF_FRAME      = TEME
TIME_SYSTEM    = UTC
MEAN_ELEMENT_THEORY = SGP/SGP4

EPOCH          = 2026-04-01T23:22:47.305632
MEAN_MOTION    = 14.15829965
ECCENTRICITY   = .00154143
INCLINATION    = 71.0033
RA_OF_ASC_NODE = 48.8741
ARG_OF_PERICENTER = 153.3405
MEAN_ANOMALY   = 206.8514

EPHEMERIS_TYPE = 0
CLASSIFICATION_TYPE = U
NORAD_CAT_ID   = 26070
ELEMENT_SET_NO = 999
REV_AT_EPOCH   = 35185
BSTAR          = .12638543E-3
MEAN_MOTION_DOT = .201E-5
MEAN_MOTION_DDOT = 0

CCSDS_OMM_VERS = 2.0
CREATION_DATE  = 
ORIGINATOR     = 

OBJECT_NAME    = TITAN 4B R/B
OBJECT_ID      = 2000-047B
CENTER_NAME    = EARTH
REF_FRAME      = TEME
TIME_SYSTEM    = UTC
MEAN_ELEMENT_THEORY = SGP/SGP4

EPOCH          = 2026-04-01T22:50:00.881376
MEAN_MOTION    = 15.09777477
ECCENTRICITY   = .00400858
INCLINATION    = 67.9908
RA_OF_ASC_NODE = 335.0913
ARG_OF_PERICENTER = 8.0864
MEAN_ANOMALY   = 352.0922

EPHEMERIS_TYPE = 0
CLASSIFICATION_TYPE = U
NORAD_CAT_ID   = 26474
ELEMENT_SET_NO = 999
REV_AT_EPOCH   = 39642
BSTAR          = .25243358E-3
MEAN_MOTION_DOT = .4027E-4
MEAN_MOTION_DDOT = 0

CCSDS_OMM_VERS = 2.0
CREATION_DATE  = 
ORIGINATOR     = 

OBJECT_NAME    = ENVISAT
OBJECT_ID      = 2002-009A
CENTER_NAME    = EARTH
REF_FRAME      = TEME
TIME_SYSTEM    = UTC
MEAN_ELEMENT_THEORY = SGP/SGP4

EPOCH          = 2026-04-01T21:45:03.727296
MEAN_MOTION    = 14.39045096
ECCENTRICITY   = .00012098
INCLINATION    = 98.3767
RA_OF_ASC_NODE = 44.9564
ARG_OF_PERICENTER = 82.1293
MEAN_ANOMALY   = 346.2232

EPHEMERIS_TYPE = 0
CLASSIFICATION_TYPE = U
NORAD_CAT_ID   = 27386
ELEMENT_SET_NO = 999
REV_AT_EPOCH   = 26251
BSTAR          = .59131694E-4
MEAN_MOTION_DOT = .14E-5
MEAN_MOTION_DDOT = 0

CCSDS_OMM_VERS = 2.0
CREATION_DATE  = 
ORIGINATOR     = 

OBJECT_NAME    = IDEFIX & ARIANE 42P R/B
OBJECT_ID      = 2002-021B
CENTER_NAME    = EARTH
REF_FRAME      = TEME
TIME_SYSTEM    = UTC
MEAN_ELEMENT_THEORY = SGP/SGP4

EPOCH          = 2026-04-01T13:39:49.652352
MEAN_MOTION    = 14.31041705
ECCENTRICITY   = .00127815
INCLINATION    = 98.5898
RA_OF_ASC_NODE = 29.9058
ARG_OF_PERICENTER = 117.2271
MEAN_ANOMALY   = 243.0216

EPHEMERIS_TYPE = 0
CLASSIFICATION_TYPE = U
NORAD_CAT_ID   = 27422
ELEMENT_SET_NO = 999
REV_AT_EPOCH   = 24729
BSTAR          = .13959156E-3
MEAN_MOTION_DOT = .324E-5
MEAN_MOTION_DDOT = 0

