SL-16 R/B               
1 25407U 98045B   26091.81140202 -.00000077  00000+0 -14682-4 0  9990
2 25407  71.0092 132.9521 0008142 333.6041  26.4666 14.16193190430379
ISS (ZARYA)             
1 25544U 98067A   26091.87535882  .00008601  00000+0  16573-3 0  9993
2 25544  51.6331 317.7347 0006236 261.1612  98.8670 15.48704825559921
CZ-4B R/B               
1 25732U 99025C   26091.09839970  .00000089  00000+0  63783-4 0  9994
2 25732  98.6580 134.8445 0035972 280.7063 133.2500 14.18269842391347
OKEAN-O                 
1 25860U 99039A   26091.90380707  .00000792  00000+0  11065-3 0  9996
2 25860  97.9395 151.5538 0000894 100.3387 259.7926 14.80372798437829
SL-16 R/B               
1 25861U 99039B   26091.11905802  .00000774  00000+0  10479-3 0  9997
2 25861  97.9918 150.1769 0014809 179.4348 180.6884 14.81762859440187
DELTA 2 R/B             
1 25876U 99041E   26091.59034303  .00000908  00000+0  18557-3 0  9991
2 25876  51.7608 209.7977 0502636  55.9621 308.7995 14.11890378366264
HELIOS 1B               
1 25977U 99064A   26091.98471153  .00001839  00000+0  20786-3 0  9990
2 25977  98.1675 354.9105 0001642  46.5228 313.6124 14.87788987688723
TERRA                   
1 25994U 99068A   26091.93975331  .00000496  00000+0  11002-3 0  9994
2 25994  97.9544 144.4807 0003649 103.5988 358.4263 14.61039424398479
SL-16 R/B               
1 26070U 00006B   26091.97415863  .00000201  00000+0  12639-3 0  9998
2 26070  71.0033  48.8741 0015414 153.3405 206.8514 14.15829965351857
TITAN 4B R/B            
1 26474U 00047B   26091.95139909  .00004027  00000+0  25243-3 0  9998
2 26474  67.9908 335.0913 0040085   8.0864 352.0922 15.09777477396422
ENVISAT                 
1 27386U 02009A   26091.90629314  .00000140  00000+0  59132-4 0  9997
2 27386  98.3767  44.9564 0001209  82.1293 346.2232 14.39045096262516
IDEFIX & ARIANE 42P R/B 
1 27422U 02021B   26091.56932468  .00000324  00000+0  13959-3 0  9991
2 27422  98.5898  29.9058 0012781 117.2271 243.0216 14.31041705247297
